NOAA-20
1 43013U 17073A   23130.00000000  .00000180  00000-0  85687-4 0  4068
2 43013 098.7508 068.9829 0001081 123.6205 285.8459 14.19547631283567
NOAA-21
1 54234U 22150A   23130.00000000  .00000133  00000-0  63008-4 0  1773
2 54234 098.7146 068.5544 0001291 116.0393 210.9716 14.19541483025635
NOAA 19
1 33591U 09005A   23130.85804458  .00000294  00000+0  18337-3 0  9995
2 33591  99.1029 176.1829 0013555 352.5295   7.5672 14.12749961734417
NOAA 18
1 28654U 05018A   23130.81829152  .00000328  00000+0  19961-3 0  9995
2 28654  98.9102 205.3884 0015303 124.2031 236.0593 14.12931340926206
NOAA 15
1 25338U 98030A   23130.83694854  .00000363  00000+0  16924-3 0  9993
2 25338  98.6088 160.5275 0011443  66.4760 293.7622 14.26310692299689
TERRA
1 25994U 99068A   23130.82450811  .00000860  00000+0  19184-3 0  9998
2 25994  98.0958 200.1304 0002096 145.2814 280.3375 14.59210023244210
AQUA
1 27424U 02022A   23130.88380804  .00001591  00000+0  35615-3 0  9991
2 27424  98.2850  75.4342 0000882  60.4429  32.1393 14.58026192117885
SUOMI NPP
1 37849U 11061A   23130.00000000  .00000195  00000-0  92605-4 0  4580
2 37849 098.7025 069.3714 0001289 086.0928 139.6504 14.19557787597527
SENTINEL-3A
1 41335U 16011A   23130.84760008  .00000250  00000+0  12132-3 0  9995
2 41335  98.6230 198.4450 0001290 104.0867 256.0456 14.26740371376453
SENTINEL-3B
1 43437U 18039A   23130.89053017  .00000254  00000+0  12286-3 0  9996
2 43437  98.6293 198.5200 0001120  84.0580 276.0728 14.26740244262527
FENGYUN 3D
1 43010U 17072A   23130.83887934  .00000133  00000+0  85128-4 0  9998
2 43010  98.8585  79.4771 0002508  67.3618 292.7830 14.19192153284207
METOP-B
1 38771U 12049A   23130.26099810  .00000000  00000+0  12562-3 0 00018
2 38771  98.6802 190.2659 0001642 114.7199 113.2326 14.21507669552166
METOP-C
1 43689U 18087A   23130.29789324  .00000000  00000+0  81600-4 0 00019
2 43689  98.6847 190.4193 0003561 155.3058  72.7763 14.21501650233749